{
  "type": "FeatureCollection",
  "features": [
    {
      "type": "Feature",
      "properties": {
        "norad_id": 41019,
        "name": "GPS BIIF-11 (PRN 10)",
        "group": "gnss",
        "lat": -0.8642779561210485,
        "lon": -141.2538316570951,
        "alt_km": 19986.561906365412,
        "timestamp": "2025-12-08T13:49:32.034444+00:00",
        "meta_object_name": "GPS BIIF-11 (PRN 10)",
        "meta_object_id": "2015-062A",
        "meta_epoch": "2025-12-07T07:48:52.356672",
        "meta_mean_motion": 2.00566963,
        "meta_eccentricity": 0.01106642,
        "meta_inclination": 56.8282,
        "meta_ra_of_asc_node": 38.2118,
        "meta_arg_of_pericenter": 229.7833,
        "meta_mean_anomaly": 129.2989,
        "meta_ephemeris_type": 0,
        "meta_classification_type": "U",
        "meta_norad_cat_id": 41019,
        "meta_element_set_no": 999,
        "meta_rev_at_epoch": 7398,
        "meta_bstar": 0,
        "meta_mean_motion_dot": -7.2e-07,
        "meta_mean_motion_ddot": 0,
        "tle_line1": "1 41019U 15062A   25341.32560598 -.00000072  00000+0  00000+0 0  9990",
        "tle_line2": "2 41019  56.8282  38.2118 0110664 229.7833 129.2989  2.00566963 73987"
      },
      "geometry": {
        "type": "Point",
        "coordinates": [
          -141.2538316570951,
          -0.8642779561210485
        ]
      }
    },
    {
      "type": "Feature",
      "properties": {
        "norad_id": 41028,
        "name": "GSAT-15 (GAGAN/PRN 139)",
        "group": "gnss",
        "lat": -0.02113428714832438,
        "lon": 18.483962659490135,
        "alt_km": 35795.8408051071,
        "timestamp": "2025-12-08T13:49:32.034459+00:00",
        "meta_object_name": "GSAT-15 (GAGAN/PRN 139)",
        "meta_object_id": "2015-065A",
        "meta_epoch": "2025-12-08T03:08:38.805216",
        "meta_mean_motion": 1.00270762,
        "meta_eccentricity": 0.00029315,
        "meta_inclination": 0.0426,
        "meta_ra_of_asc_node": 95.9999,
        "meta_arg_of_pericenter": 142.8397,
        "meta_mean_anomaly": 338.9684,
        "meta_ephemeris_type": 0,
        "meta_classification_type": "U",
        "meta_norad_cat_id": 41028,
        "meta_element_set_no": 999,
        "meta_rev_at_epoch": 3688,
        "meta_bstar": 0,
        "meta_mean_motion_dot": -2.55e-06,
        "meta_mean_motion_ddot": 0,
        "tle_line1": "1 41028U 15065A   25342.13100469 -.00000255  00000+0  00000+0 0  9993",
        "tle_line2": "2 41028   0.0426  95.9999 0002931 142.8397 338.9684  1.00270762 36889"
      },
      "geometry": {
        "type": "Point",
        "coordinates": [
          18.483962659490135,
          -0.02113428714832438
        ]
      }
    },
    {
      "type": "Feature",
      "properties": {
        "norad_id": 41174,
        "name": "GSAT0209 (GALILEO 12)",
        "group": "gnss",
        "lat": 51.5118033293894,
        "lon": -132.53273401079664,
        "alt_km": 23218.64025000155,
        "timestamp": "2025-12-08T13:49:32.034472+00:00",
        "meta_object_name": "GSAT0209 (GALILEO 12)",
        "meta_object_id": "2015-079A",
        "meta_epoch": "2025-12-01T22:43:10.411392",
        "meta_mean_motion": 1.70474306,
        "meta_eccentricity": 0.0002352,
        "meta_inclination": 55.7062,
        "meta_ra_of_asc_node": 106.6773,
        "meta_arg_of_pericenter": 357.4206,
        "meta_mean_anomaly": 2.5431,
        "meta_ephemeris_type": 0,
        "meta_classification_type": "U",
        "meta_norad_cat_id": 41174,
        "meta_element_set_no": 999,
        "meta_rev_at_epoch": 6141,
        "meta_bstar": 0,
        "meta_mean_motion_dot": 3.5e-07,
        "meta_mean_motion_ddot": 0,
        "tle_line1": "1 41174U 15079A   25335.94664828  .00000035  00000+0  00000+0 0  9990",
        "tle_line2": "2 41174  55.7062 106.6773 0002352 357.4206   2.5431  1.70474306 61412"
      },
      "geometry": {
        "type": "Point",
        "coordinates": [
          -132.53273401079664,
          51.5118033293894
        ]
      }
    },
    {
      "type": "Feature",
      "properties": {
        "norad_id": 41175,
        "name": "GSAT0208 (GALILEO 11)",
        "group": "gnss",
        "lat": -21.626246172961086,
        "lon": 90.80163677767183,
        "alt_km": 23220.416731039462,
        "timestamp": "2025-12-08T13:49:32.034483+00:00",
        "meta_object_name": "GSAT0208 (GALILEO 11)",
        "meta_object_id": "2015-079B",
        "meta_epoch": "2025-12-07T10:42:17.817120",
        "meta_mean_motion": 1.70474201,
        "meta_eccentricity": 0.00018539,
        "meta_inclination": 55.7081,
        "meta_ra_of_asc_node": 106.5234,
        "meta_arg_of_pericenter": 5.1909,
        "meta_mean_anomaly": 354.7678,
        "meta_ephemeris_type": 0,
        "meta_classification_type": "U",
        "meta_norad_cat_id": 41175,
        "meta_element_set_no": 999,
        "meta_rev_at_epoch": 6192,
        "meta_bstar": 0,
        "meta_mean_motion_dot": 8e-08,
        "meta_mean_motion_ddot": 0,
        "tle_line1": "1 41175U 15079B   25341.44603955  .00000008  00000+0  00000+0 0  9997",
        "tle_line2": "2 41175  55.7081 106.5234 0001853   5.1909 354.7678  1.70474201 61922"
      },
      "geometry": {
        "type": "Point",
        "coordinates": [
          90.80163677767183,
          -21.626246172961086
        ]
      }
    },
    {
      "type": "Feature",
      "properties": {
        "norad_id": 41241,
        "name": "IRNSS-1E",
        "group": "gnss",
        "lat": -13.567450769831943,
        "lon": 40.565243042793384,
        "alt_km": 35864.95275719592,
        "timestamp": "2025-12-08T13:49:32.034494+00:00",
        "meta_object_name": "IRNSS-1E",
        "meta_object_id": "2016-003A",
        "meta_epoch": "2025-12-07T15:52:32.094912",
        "meta_mean_motion": 1.00275984,
        "meta_eccentricity": 0.00218847,
        "meta_inclination": 32.8144,
        "meta_ra_of_asc_node": 62.5276,
        "meta_arg_of_pericenter": 186.9179,
        "meta_mean_anomaly": 177.1372,
        "meta_ephemeris_type": 0,
        "meta_classification_type": "U",
        "meta_norad_cat_id": 41241,
        "meta_element_set_no": 999,
        "meta_rev_at_epoch": 3616,
        "meta_bstar": 0,
        "meta_mean_motion_dot": -3.13e-06,
        "meta_mean_motion_ddot": 0,
        "tle_line1": "1 41241U 16003A   25341.66148258 -.00000313  00000+0  00000+0 0  9993",
        "tle_line2": "2 41241  32.8144  62.5276 0021884 186.9179 177.1372  1.00275984 36168"
      },
      "geometry": {
        "type": "Point",
        "coordinates": [
          40.565243042793384,
          -13.567450769831943
        ]
      }
    },
    {
      "type": "Feature",
      "properties": {
        "norad_id": 41328,
        "name": "GPS BIIF-12 (PRN 32)",
        "group": "gnss",
        "lat": 44.52686685824736,
        "lon": -125.67940205425741,
        "alt_km": 20303.976286733236,
        "timestamp": "2025-12-08T13:49:32.034505+00:00",
        "meta_object_name": "GPS BIIF-12 (PRN 32)",
        "meta_object_id": "2016-007A",
        "meta_epoch": "2025-12-07T09:47:29.747616",
        "meta_mean_motion": 2.00560863,
        "meta_eccentricity": 0.0091895,
        "meta_inclination": 55.4032,
        "meta_ra_of_asc_node": 97.0687,
        "meta_arg_of_pericenter": 243.44,
        "meta_mean_anomaly": 115.5952,
        "meta_ephemeris_type": 0,
        "meta_classification_type": "U",
        "meta_norad_cat_id": 41328,
        "meta_element_set_no": 999,
        "meta_rev_at_epoch": 7199,
        "meta_bstar": 0,
        "meta_mean_motion_dot": -4e-08,
        "meta_mean_motion_ddot": 0,
        "tle_line1": "1 41328U 16007A   25341.40798319 -.00000004  00000+0  00000+0 0  9991",
        "tle_line2": "2 41328  55.4032  97.0687 0091895 243.4400 115.5952  2.00560863 71999"
      },
      "geometry": {
        "type": "Point",
        "coordinates": [
          -125.67940205425741,
          44.52686685824736
        ]
      }
    },
    {
      "type": "Feature",
      "properties": {
        "norad_id": 41330,
        "name": "COSMOS 2514 (751)",
        "group": "gnss",
        "lat": -31.066466446739607,
        "lon": 155.7519127522759,
        "alt_km": 19102.898801423147,
        "timestamp": "2025-12-08T13:49:32.034560+00:00",
        "meta_object_name": "COSMOS 2514 (751)",
        "meta_object_id": "2016-008A",
        "meta_epoch": "2025-12-07T19:50:46.203360",
        "meta_mean_motion": 2.13102518,
        "meta_eccentricity": 0.00122791,
        "meta_inclination": 65.1366,
        "meta_ra_of_asc_node": 319.5722,
        "meta_arg_of_pericenter": 220.0209,
        "meta_mean_anomaly": 139.8828,
        "meta_ephemeris_type": 0,
        "meta_classification_type": "U",
        "meta_norad_cat_id": 41330,
        "meta_element_set_no": 999,
        "meta_rev_at_epoch": 7654,
        "meta_bstar": 0,
        "meta_mean_motion_dot": -4.9e-07,
        "meta_mean_motion_ddot": 0,
        "tle_line1": "1 41330U 16008A   25341.82692365 -.00000049  00000+0  00000+0 0  9994",
        "tle_line2": "2 41330  65.1366 319.5722 0012279 220.0209 139.8828  2.13102518 76549"
      },
      "geometry": {
        "type": "Point",
        "coordinates": [
          155.7519127522759,
          -31.066466446739607
        ]
      }
    }
  ]
}